IRIDIUM 155             
1 43573U 18061E   23021.60353371  .00000184  00000+0  58550-4 0  9993
2 43573  86.3971 215.9361 0002285  92.8873 267.2584 14.34220325235267
IRIDIUM 154             
1 43574U 18061F   23022.28218213  .00000172  00000+0  54186-4 0  9992
2 43574  86.3974 215.7260 0001774  94.6512 265.4887 14.34221728235409
IRIDIUM 163             
1 43575U 18061G   23022.82133172  .00000168  00000+0  52988-4 0  9996
2 43575  86.3972 215.4545 0001879  82.1451 277.9958 14.34217880235457
IRIDIUM 156             
1 43576U 18061H   23022.23779890  .00000169  00000+0  53385-4 0  9998
2 43576  86.3973 215.7039 0002160  82.7831 277.3610 14.34219446235350
IRIDIUM 164             
1 43577U 18061J   23022.77690962  .00000115  00000+0  33854-4 0  9990
2 43577  86.3976 215.4999 0001730  89.7530 270.3864 14.34218286235480
IRIDIUM 159             
1 43578U 18061K   23022.53592040  .00000313  00000+0  10478-3 0  9999
2 43578  86.3972 215.5636 0001850  93.2626 266.8781 14.34219158235415
IRIDIUM 180             
1 43922U 19002A   23022.60516771  .00000106  00000+0  30807-4 0  9992
2 43922  86.4011 152.5118 0001595  95.3612 264.7766 14.34210950211079
IRIDIUM 176             
1 43923U 19002B   23022.66084615  .00002262  00000+0  35474-3 0  9995
2 43923  86.6143 152.5295 0002218  91.3034 268.8438 14.72254248216583
IRIDIUM 168             
1 43924U 19002C   23022.66858318  .00000657  00000+0  22737-3 0  9999
2 43924  86.4008 152.5269 0001826 100.0382 260.1019 14.34214236211026
IRIDIUM 173             
1 43925U 19002D   23022.86521015  .00000044  00000+0  85720-5 0  9996
2 43925  86.4012 152.3852 0001708  96.6522 263.4868 14.34213612211040
IRIDIUM 169             
1 43926U 19002E   23022.89038701  .00000727  00000+0  23127-3 0  9994
2 43926  86.4263 183.9269 0005933 104.9620 255.2235 14.38598766211763
IRIDIUM 172             
1 43927U 19002F   23022.64957904  .00000633  00000+0  21903-3 0  9999
2 43927  86.4012 152.4793 0001608  97.7706 262.3673 14.34213706211015
IRIDIUM 175             
1 43928U 19002G   23022.11092617  .00002422  00000+0  38021-3 0  9990
2 43928  86.6146 152.5959 0002259  92.8850 267.2626 14.72253418216495
IRIDIUM 171             
1 43929U 19002H   23022.42122592  .00000562  00000+0  19363-3 0  9992
2 43929  86.4016 152.7424 0001829  97.3019 262.8385 14.34214272210971
IRIDIUM 170             
1 43930U 19002J   23022.59905394  .00002311  00000+0  36261-3 0  9991
2 43930  86.6146 152.5605 0002156  93.6419 266.5045 14.72254327216589
IRIDIUM 167             
1 43931U 19002K   23023.11258461  .00000404  00000+0  13714-3 0  9996
2 43931  86.4010 152.2972 0001673  97.3920 262.7466 14.34212828211075
